<?xml version="1.0" encoding="UTF-8"?>
<kml xmlns="http://www.opengis.net/kml/2.2">
  <Document>
    <name>sangre_iti</name>
    <Style id="line-000000-2000-nodesc-normal">
      <LineStyle>
        <color>ff000000</color>
        <width>2</width>
      </LineStyle>
      <BalloonStyle>
        <text><![CDATA[<h3>$[name]</h3>]]></text>
      </BalloonStyle>
    </Style>
    <Style id="line-000000-2000-nodesc-highlight">
      <LineStyle>
        <color>ff000000</color>
        <width>3</width>
      </LineStyle>
      <BalloonStyle>
        <text><![CDATA[<h3>$[name]</h3>]]></text>
      </BalloonStyle>
    </Style>
    <StyleMap id="line-000000-2000-nodesc">
      <Pair>
        <key>normal</key>
        <styleUrl>#line-000000-2000-nodesc-normal</styleUrl>
      </Pair>
      <Pair>
        <key>highlight</key>
        <styleUrl>#line-000000-2000-nodesc-highlight</styleUrl>
      </Pair>
    </StyleMap>
    <Style id="line-BDBDBD-3000-nodesc-normal">
      <LineStyle>
        <color>ffbdbdbd</color>
        <width>3</width>
      </LineStyle>
      <BalloonStyle>
        <text><![CDATA[<h3>$[name]</h3>]]></text>
      </BalloonStyle>
    </Style>
    <Style id="line-BDBDBD-3000-nodesc-highlight">
      <LineStyle>
        <color>ffbdbdbd</color>
        <width>4.5</width>
      </LineStyle>
      <BalloonStyle>
        <text><![CDATA[<h3>$[name]</h3>]]></text>
      </BalloonStyle>
    </Style>
    <StyleMap id="line-BDBDBD-3000-nodesc">
      <Pair>
        <key>normal</key>
        <styleUrl>#line-BDBDBD-3000-nodesc-normal</styleUrl>
      </Pair>
      <Pair>
        <key>highlight</key>
        <styleUrl>#line-BDBDBD-3000-nodesc-highlight</styleUrl>
      </Pair>
    </StyleMap>
    <Placemark>
      <name>2</name>
      <styleUrl>#line-BDBDBD-3000-nodesc</styleUrl>
      <LineString>
        <tessellate>1</tessellate>
        <coordinates>
          -4.41995,36.719705,0
          -4.42004,36.719691,0
          -4.420078,36.71973,0
          -4.420113,36.720182,0
          -4.420078,36.720232,0
          -4.420101,36.72062,0
          -4.420089,36.72066,0
          -4.420064,36.720687,0
          -4.420034,36.720704,0
          -4.420004,36.720712,0
          -4.419953,36.720721,0
          -4.419469,36.720732,0
          -4.419435,36.720743,0
          -4.419406,36.720771,0
          -4.419382,36.720808,0
          -4.419356,36.720848,0
          -4.419222,36.720972,0
          -4.419594,36.721239,0
          -4.419944,36.721497,0
          -4.420054,36.721576,0
          -4.420145,36.721634,0
          -4.420203,36.721661,0
          -4.420282,36.721685,0
          -4.420577,36.72176,0
          -4.420609,36.721774,0
          -4.420634,36.721796,0
          -4.420648,36.721824,0
          -4.420657,36.721855,0
          -4.420661,36.721886,0
          -4.420659,36.721932,0
          -4.42061,36.722059,0
          -4.420569,36.72222,0
          -4.420531,36.722576,0
          -4.42047,36.722832,0
          -4.420031,36.723347,0
          -4.419623,36.723778,0
          -4.4195862,36.7238093,0
          -4.4199156,36.7239853,0
          -4.4204225,36.7242512,0
          -4.4205261,36.7243171,0
          -4.4206888,36.7243573,0
          -4.4208181,36.7243616,0
          -4.420698,36.724792,0
          -4.420612,36.724756,0
        </coordinates>
      </LineString>
    </Placemark>
    <Placemark>
      <name>1</name>
      <styleUrl>#line-000000-2000-nodesc</styleUrl>
      <LineString>
        <tessellate>1</tessellate>
        <coordinates>
          -4.421298,36.725626,0
          -4.421308,36.725674,0
          -4.421196,36.725689,0
          -4.421138,36.725493,0
          -4.42063,36.725393,0
          -4.420688,36.72509,0
          -4.420752,36.724765,0
          -4.420844,36.724329,0
          -4.420607,36.724298,0
          -4.420462,36.724219,0
          -4.420521,36.724148,0
          -4.420657,36.723972,0
          -4.420964,36.723633,0
          -4.421019,36.723575,0
          -4.421094,36.723452,0
          -4.421138,36.723361,0
          -4.421166,36.723361,0
          -4.421372,36.723518,0
          -4.42154,36.723686,0
          -4.421646,36.723844,0
          -4.421755,36.724068,0
          -4.422554,36.72378,0
          -4.423221,36.723546,0
          -4.423476,36.723437,0
          -4.423572,36.723378,0
          -4.423728,36.723255,0
          -4.423924,36.723064,0
          -4.424244,36.72273,0
          -4.424416,36.722508,0
          -4.424638,36.722207,0
          -4.424791,36.722011,0
          -4.425112,36.721522,0
          -4.425124,36.721487,0
          -4.425125,36.721368,0
          -4.425064,36.720636,0
          -4.424645,36.720687,0
          -4.424196,36.720726,0
          -4.423855,36.720816,0
          -4.423674,36.720883,0
          -4.423598,36.720898,0
          -4.423323,36.720927,0
          -4.422957,36.720909,0
          -4.422336,36.7209,0
          -4.422253,36.720904,0
        </coordinates>
      </LineString>
    </Placemark>
  </Document>
</kml>
